CCSDS_OMM_VERS,COMMENT,CREATION_DATE,ORIGINATOR,OBJECT_NAME,OBJECT_ID,CENTER_NAME,REF_FRAME,TIME_SYSTEM,MEAN_ELEMENT_THEORY,EPOCH,MEAN_MOTION,ECCENTRICITY,INCLINATION,RA_OF_ASC_NODE,ARG_OF_PERICENTER,MEAN_ANOMALY,EPHEMERIS_TYPE,CLASSIFICATION_TYPE,NORAD_CAT_ID,ELEMENT_SET_NO,REV_AT_EPOCH,BSTAR,MEAN_MOTION_DOT,MEAN_MOTION_DDOT,SEMIMAJOR_AXIS,PERIOD,APOAPSIS,PERIAPSIS,OBJECT_TYPE,RCS_SIZE,COUNTRY_CODE,LAUNCH_DATE,SITE,DECAY_DATE,FILE,GP_ID,TLE_LINE0,TLE_LINE1,TLE_LINE2,,,,,,,AVG_ALTITUDE,,AVG_VELOCITY
2,GENERATED VIA SPACE-TRACK.ORG API,2022-06-03T06:36:13,18 SPCS,OBJECT T,2022-019T,EARTH,TEME,UTC,SGP4,2022-06-03T04:25:04.911168,15.10964969,0.0013576,97.5105,229.2063,306.8577,137.4294,0,U,51841,999,1449,0.00019794,3.25E-05,0,6911.393,95.303,542.641,523.875,UNKNOWN,MEDIUM,PRC,2/27/2022,WSC,,3478167,205218679,0 OBJECT T,1 51841U 22019T   22154.18408462  .00003245  00000-0  19794-3 0  9997,2 51841  97.5105 229.2063 0013576 306.8577 137.4294 15.10964969 14498,,,,,,,541.393,,7.594271601
2,GENERATED VIA SPACE-TRACK.ORG API,2022-06-03T07:36:12,18 SPCS,OBJECT U,2022-019U,EARTH,TEME,UTC,SGP4,2022-06-03T04:42:18.141984,15.2342279,0.0068159,97.5583,231.642,237.4006,207.0071,0,U,51842,999,1461,0.00020716,5.18E-05,0,6873.663,94.524,542.378,448.677,UNKNOWN,LARGE,PRC,2/27/2022,WSC,,3478572,205228691,0 OBJECT U,1 51842U 22019U   22154.19604331  .00005183  00000-0  20716-3 0  9991,2 51842  97.5583 231.6420 0068159 237.4006 207.0071 15.23422790 14612,,,,,,,503.663,,7.615085812
2,GENERATED VIA SPACE-TRACK.ORG API,2022-06-03T06:56:14,18 SPCS,OBJECT V,2022-019V,EARTH,TEME,UTC,SGP4,2022-06-03T04:38:08.863296,15.10577763,0.0014319,97.5146,229.2397,314.7906,129.3166,0,U,51843,999,1449,0.00016532,2.67E-05,0,6912.574,95.328,544.337,524.541,UNKNOWN,LARGE,PRC,2/27/2022,WSC,,3478326,205222571,0 OBJECT V,1 51843U 22019V   22154.19315814  .00002671  00000-0  16532-3 0  9997,2 51843  97.5146 229.2397 0014319 314.7906 129.3166 15.10577763 14495,,,,,,,542.574,,7.59362284
2,GENERATED VIA SPACE-TRACK.ORG API,2022-06-02T19:16:12,18 SPCS,OBJECT W,2022-019W,EARTH,TEME,UTC,SGP4,2022-06-02T17:07:02.448192,15.10780782,0.0020496,97.5072,228.6097,306.8983,154.4162,0,U,51844,999,1431,0.00029556,4.87E-05,0,6911.955,95.315,547.986,519.653,UNKNOWN,MEDIUM,PRC,2/27/2022,WSC,,3477527,205180057,0 OBJECT W,1 51844U 22019W   22153.71322278  .00004866  00000-0  29556-3 0  9995,2 51844  97.5072 228.6097 0020496 306.8983 154.4162 15.10780782 14317,,,,,,,541.955,,7.593962856
2,GENERATED VIA SPACE-TRACK.ORG API,2022-06-03T06:46:12,18 SPCS,OBJECT X,2022-019X,EARTH,TEME,UTC,SGP4,2022-06-03T04:45:48.763584,15.10736448,0.001458,97.5123,229.2006,309.1735,135.1539,0,U,51845,999,1441,0.0002854,4.68E-05,0,6912.09,95.318,544.033,523.877,UNKNOWN,MEDIUM,PRC,2/27/2022,WSC,,3478187,205219189,0 OBJECT X,1 51845U 22019X   22154.19848106  .00004679  00000-0  28540-3 0  9996,2 51845  97.5123 229.2006 0014580 309.1735 135.1539 15.10736448 14415,,,,,,,542.09,,7.593888697
2,GENERATED VIA SPACE-TRACK.ORG API,2022-06-03T06:56:14,18 SPCS,STRIX-BETA,2022-020A,EARTH,TEME,UTC,SGP4,2022-06-03T03:47:15.754272,15.01013357,0.0012368,97.7665,207.9804,340.4954,103.5957,0,U,51847,999,1414,-0.00017571,-2.31E-05,0,6941.907,95.935,572.358,555.186,PAYLOAD,MEDIUM,JPN,2/28/2022,RLLC,,3478299,205221516,0 STRIX-BETA,1 51847U 22020A   22154.15782123 -.00002307  00000-0 -17571-3 0  9992,2 51847  97.7665 207.9804 0012368 340.4954 103.5957 15.01013357 14142,,,,,,,571.907,,7.577562445
2,GENERATED VIA SPACE-TRACK.ORG API,2022-06-03T07:06:16,18 SPCS,STARLINK-3542,2022-022A,EARTH,TEME,UTC,SGP4,2022-06-03T04:17:34.620288,15.08845767,0.0002255,53.2175,74.0275,50.8615,309.2577,0,U,51852,999,1535,4.20E-05,3.80E-06,0,6917.863,95.437,541.288,538.168,PAYLOAD,LARGE,US,3/3/2022,AFETR,,3478401,205224593,0 STARLINK-3542,1 51852U 22022A   22154.17887292  .00000380  00000-0  41992-4 0  9997,2 51852  53.2175  74.0275 0002255  50.8615 309.2577 15.08845767 15358,,,,,,,547.863,,7.590719462
2,GENERATED VIA SPACE-TRACK.ORG API,2022-06-03T07:06:16,18 SPCS,STARLINK-3539,2022-022B,EARTH,TEME,UTC,SGP4,2022-06-03T04:22:52.036608,15.08844001,0.0001952,53.2171,74.0124,52.0572,308.0597,0,U,51853,999,1530,-4.32E-05,-9.77E-06,0,6917.868,95.437,541.084,538.383,PAYLOAD,LARGE,US,3/3/2022,AFETR,,3478401,205224597,0 STARLINK-3539,1 51853U 22022B   22154.18254672 -.00000977  00000-0 -43248-4 0  9999,2 51853  53.2171  74.0124 0001952  52.0572 308.0597 15.08844001 15301,,,,,,,547.868,,7.590716718
2,GENERATED VIA SPACE-TRACK.ORG API,2022-06-02T23:16:12,18 SPCS,STARLINK-3541,2022-022C,EARTH,TEME,UTC,SGP4,2022-06-02T18:39:57.506688,15.08839345,0.000225,53.2177,75.8252,43.8314,316.2856,0,U,51854,999,1530,-3.81E-06,-3.49E-06,0,6917.882,95.438,541.304,538.191,PAYLOAD,LARGE,US,3/3/2022,AFETR,,3477866,205187413,0 STARLINK-3541,1 51854U 22022C   22153.77774892 -.00000349  00000-0 -38072-5 0  9998,2 51854  53.2177  75.8252 0002250  43.8314 316.2856 15.08839345 15307,,,,,,,547.882,,7.590709038
2,GENERATED VIA SPACE-TRACK.ORG API,2022-06-03T07:06:16,18 SPCS,STARLINK-3545,2022-022D,EARTH,TEME,UTC,SGP4,2022-06-03T04:01:41.274912,15.08837171,0.0001815,53.2167,74.0734,54.2629,305.8531,0,U,51855,999,1531,-6.40E-05,-1.31E-05,0,6917.889,95.438,541.01,538.498,PAYLOAD,LARGE,US,3/3/2022,AFETR,,3478401,205224594,0 STARLINK-3545,1 51855U 22022D   22154.16783883 -.00001306  00000-0 -63998-4 0  9991,2 51855  53.2167  74.0734 0001815  54.2629 305.8531 15.08837171 15314,,,,,,,547.889,,7.590705197
2,GENERATED VIA SPACE-TRACK.ORG API,2022-06-03T07:06:16,18 SPCS,STARLINK-3568,2022-022E,EARTH,TEME,UTC,SGP4,2022-06-03T04:06:58.502016,15.08839994,0.0001967,53.2178,74.0599,44.6061,315.5089,0,U,51856,999,1539,9.46E-05,1.22E-05,0,6917.88,95.438,541.106,538.385,PAYLOAD,LARGE,US,3/3/2022,AFETR,,3478401,205224598,0 STARLINK-3568,1 51856U 22022E   22154.17151044  .00001218  00000-0  94649-4 0  9998,2 51856  53.2178  74.0599 0001967  44.6061 315.5089 15.08839994 15396,,,,,,,547.88,,7.590710135
2,GENERATED VIA SPACE-TRACK.ORG API,2022-06-03T07:06:16,18 SPCS,STARLINK-3571,2022-022F,EARTH,TEME,UTC,SGP4,2022-06-03T03:51:05.242176,15.08831063,0.0001621,53.2168,74.1065,70.1572,289.9595,0,U,51857,999,1536,2.91E-05,1.75E-06,0,6917.908,95.438,540.894,538.651,PAYLOAD,LARGE,US,3/3/2022,AFETR,,3478401,205225099,0 STARLINK-3571,1 51857U 22022F   22154.16047734  .00000175  00000-0  29090-4 0  9997,2 51857  53.2168  74.1065 0001621  70.1572 289.9595 15.08831063 15365,,,,,,,547.908,,7.590694773
2,GENERATED VIA SPACE-TRACK.ORG API,2022-06-03T07:06:16,18 SPCS,STARLINK-3563,2022-022G,EARTH,TEME,UTC,SGP4,2022-06-03T03:56:21.975072,15.08848231,0.0001696,53.2163,74.0901,55.585,304.5302,0,U,51858,999,1536,4.68E-05,4.57E-06,0,6917.855,95.437,540.893,538.547,PAYLOAD,LARGE,US,3/3/2022,AFETR,,3478401,205224603,0 STARLINK-3563,1 51858U 22022G   22154.16414323  .00000457  00000-0  46825-4 0  9998,2 51858  53.2163  74.0901 0001696  55.5850 304.5302 15.08848231 15362,,,,,,,547.855,,7.590723851
2,GENERATED VIA SPACE-TRACK.ORG API,2022-06-03T02:31:39,18 SPCS,STARLINK-3560,2022-022H,EARTH,TEME,UTC,SGP4,2022-06-02T20:21:59.150592,15.08842614,0.000158,53.2139,65.5134,56.6827,303.4316,0,U,51859,999,1545,5.64E-05,6.10E-06,0,6917.872,95.437,540.83,538.644,PAYLOAD,LARGE,US,3/3/2022,AFETR,,3477983,205214878,0 STARLINK-3560,1 51859U 22022H   22153.84860128  .00000610  00000-0  56432-4 0  9997,2 51859  53.2139  65.5134 0001580  56.6827 303.4316 15.08842614 15459,,,,,,,547.872,,7.590714524
2,GENERATED VIA SPACE-TRACK.ORG API,2022-06-03T07:06:16,18 SPCS,STARLINK-3559,2022-022J,EARTH,TEME,UTC,SGP4,2022-06-03T01:18:44.893728,15.08838367,0.0001543,53.217,64.5697,67.2021,292.9134,0,U,51860,999,1544,-1.38E-05,-5.07E-06,0,6917.885,95.438,540.818,538.683,PAYLOAD,LARGE,US,3/3/2022,AFETR,,3478401,205224592,0 STARLINK-3559,1 51860U 22022J   22154.05468627 -.00000507  00000-0 -13788-4 0  9995,2 51860  53.2170  64.5697 0001543  67.2021 292.9134 15.08838367 15441,,,,,,,547.885,,7.590707392
2,GENERATED VIA SPACE-TRACK.ORG API,2022-06-03T07:06:16,18 SPCS,STARLINK-3562,2022-022K,EARTH,TEME,UTC,SGP4,2022-06-03T00:57:32.143968,15.08839914,0.0001751,53.2154,64.6542,49.7311,310.3834,0,U,51861,999,1542,-3.93E-05,-9.13E-06,0,6917.881,95.438,540.957,538.534,PAYLOAD,LARGE,US,3/3/2022,AFETR,,3478401,205225103,0 STARLINK-3562,1 51861U 22022K   22154.03995537 -.00000913  00000-0 -39250-4 0  9992,2 51861  53.2154  64.6542 0001751  49.7311 310.3834 15.08839914 15421,,,,,,,547.881,,7.590709586
2,GENERATED VIA SPACE-TRACK.ORG API,2022-06-02T23:26:12,18 SPCS,STARLINK-3508,2022-022L,EARTH,TEME,UTC,SGP4,2022-06-02T18:51:53.588160,15.08844112,0.0001619,53.2159,65.7742,47.7996,312.3134,0,U,51862,999,1545,-9.59E-05,-1.81E-05,0,6917.868,95.437,540.853,538.613,PAYLOAD,LARGE,US,3/3/2022,AFETR,,3477918,205188993,0 STARLINK-3508,1 51862U 22022L   22153.78603690 -.00001813  00000-0 -95858-4 0  9996,2 51862  53.2159  65.7742 0001619  47.7996 312.3134 15.08844112 15455,,,,,,,547.868,,7.590716718
2,GENERATED VIA SPACE-TRACK.ORG API,2022-06-03T07:06:16,18 SPCS,STARLINK-3555,2022-022M,EARTH,TEME,UTC,SGP4,2022-06-03T03:57:42.635520,15.08834988,0.0001853,53.2179,64.0934,47.9099,312.2051,0,U,51863,999,1545,0.00017912,2.56E-05,0,6917.896,95.438,541.043,538.479,PAYLOAD,LARGE,US,3/3/2022,AFETR,,3478418,205224643,0 STARLINK-3555,1 51863U 22022M   22154.16507680  .00002563  00000-0  17912-3 0  9997,2 51863  53.2179  64.0934 0001853  47.9099 312.2051 15.08834988 15456,,,,,,,547.896,,7.590701357
2,GENERATED VIA SPACE-TRACK.ORG API,2022-06-03T07:06:16,18 SPCS,STARLINK-3548,2022-022N,EARTH,TEME,UTC,SGP4,2022-06-03T02:38:12.956352,15.08835068,0.0001603,53.2142,64.3402,53.7838,306.3302,0,U,51864,999,1549,-2.33E-05,-6.58E-06,0,6917.895,95.438,540.869,538.652,PAYLOAD,LARGE,US,3/3/2022,AFETR,,3478418,205224647,0 STARLINK-3548,1 51864U 22022N   22154.10987218 -.00000658  00000-0 -23253-4 0  9992,2 51864  53.2142  64.3402 0001603  53.7838 306.3302 15.08835068 15496,,,,,,,547.895,,7.590701905
